satname,norad_id,inclination_deg,eccentricity,mean_motion_rev_per_day,perigee_km,apogee_km,l1,l2
STARLINK-1316,45415,53.1568,0.0001037,15.41443495,441.14101308855516,442.5554780284838,1 45415U 20019BH  26185.30209012  .00089042  00000+0  20810-2 0  9995,2 45415  53.1568 303.1003 0001037 180.2971 179.8034 15.41443495347914
STARLINK-1286,45417,53.0445,0.0005029,15.67110548,363.78344978645873,370.5678852674582,1 45417U 20019BK  26184.72034903  .00070502  00000+0  64669-3 0  9999,2 45417  53.0445 287.2452 0005029 342.2915  17.7924 15.67110548348313
STARLINK-1308,45419,53.0455,0.0004508,15.68517289,360.1030267779479,366.1809639201556,1 45419U 20019BM  26185.61426195  .00102063  00000+0  87863-3 0  9997,2 45419  53.0455 301.9584 0004508 107.6176 252.5333 15.68517289347933
STARLINK-1329,45531,53.0382,0.0003462,15.76922673,336.8400216427699,341.4910819296274,1 45531U 20025A   26184.51842052  .00080398  00000+0  48622-3 0  9997,2 45531  53.0382 229.5573 0003462 352.2500   7.8466 15.76922673343634
STARLINK-1338,45532,53.0411,0.0002718,15.74042756,345.5285216368475,349.18449990930367,1 45532U 20025B   26185.50035595  .00117813  00000+0  80236-3 0  9994,2 45532  53.0411 232.1116 0002718  51.4063 308.7198 15.74042756343689
STARLINK-1350,45535,53.0682,0.0001519,15.39576893,446.3227621210144,448.39634797443796,1 45535U 20025E   26185.46900039  .00113161  00000+0  28010-2 0  9999,2 45535  53.0682 203.5017 0001519  46.3853 313.7276 15.39576893344120
STARLINK-1362,45538,53.155,0.0004297,15.39962123,443.2887905073985,449.1536439592892,1 45538U 20025H   26185.62920151  .00250978  00000+0  60116-2 0  9998,2 45538  53.1550 274.2101 0004297 312.5282  47.5360 15.39962123343138
STARLINK-1368,45540,53.1571,0.0002777,15.40152911,443.7626549780589,447.5525905115328,1 45540U 20025K   26185.51013141  .00120140  00000+0  29147-2 0  9997,2 45540  53.1571 275.1121 0002777 313.0809  46.9963 15.40152911343105
STARLINK-1371,45542,53.0406,0.0002331,15.71099318,354.18431415205487,357.32365412886065,1 45542U 20025M   26185.53818127  .00092387  00000+0  71618-3 0  9990,2 45542  53.0406 242.3675 0002331  43.4358 316.6842 15.71099318343548
STARLINK-1372,45543,53.1563,0.0002829,15.40548177,442.5602419136085,446.42048447570414,1 45543U 20025N   26185.52590556  .00073397  00000+0  17722-2 0  9998,2 45543  53.1563 274.4502 0002829 296.8132  63.2583 15.40548177342213
STARLINK-1373,45544,53.0425,0.0003053,15.72873202,348.6357397682568,352.7443615653938,1 45544U 20025P   26185.13202274  .00082820  00000+0  59677-3 0  9990,2 45544  53.0425 239.1226 0003053  44.1049 316.0212 15.72873202343553
STARLINK-1327,45555,53.0385,0.0002578,15.74618226,343.9843734037895,347.4511929299897,1 45555U 20025AA  26185.37203397  .00094382  00000+0  62961-3 0  9991,2 45555  53.0385 215.1618 0002578  59.9396 300.1878 15.74618226343905
STARLINK-1356,45564,53.0398,0.0004266,15.67519584,363.125130778275,368.87923032712297,1 45564U 20025AK  26185.40750330  .00063238  00000+0  57165-3 0  9995,2 45564  53.0398 229.0402 0004266  23.2260 336.8948 15.67519584343716
STARLINK-1357,45565,53.0421,0.0001367,15.72601911,350.5439560661953,352.3838289502073,1 45565U 20025AL  26185.29715798  .00085968  00000+0  62633-3 0  9992,2 45565  53.0421 185.4051 0001367 179.0129 181.0892 15.72601911344320
STARLINK-1361,45567,53.0396,0.0002496,15.71174917,353.8572508749594,357.21870142305306,1 45567U 20025AN  26185.51227349  .00104865  00000+0  80849-3 0  9996,2 45567  53.0396 226.6083 0002496  59.2474 300.8788 15.71174917343764
STARLINK-1376,45570,53.1554,0.0001947,15.40914735,442.0801723278928,444.7364820783059,1 45570U 20025AR  26185.56046273  .00072603  00000+0  17323-2 0  9990,2 45570  53.1554 250.6074 0001947 310.7397  49.3440 15.40914735343453
STARLINK-1320,45572,53.0357,0.0005244,15.97212966,278.6626499860986,285.64796455796477,1 45572U 20025AT  26185.66670139  .00547659  13748-3  12256-2 0  9992,2 45572  53.0357 118.5567 0005244  79.2398 144.1471 15.97212966  5885
STARLINK-1321,45573,53.0392,0.0001207,15.71625706,353.437703256689,355.06290155148963,1 45573U 20025AU  26185.44927343  .00083963  00000+0  63775-3 0  9990,2 45573  53.0392 210.7141 0001207  61.0081 299.1057 15.71625706343676
STARLINK-1331,45578,53.0431,0.0001874,15.71389887,353.6620643496317,356.1856155524438,1 45578U 20025AZ  26185.47614681  .00103539  00000+0  79132-3 0  9992,2 45578  53.0431 217.5368 0001874  58.7857 301.3343 15.71389887343890
STARLINK-1333,45580,53.1543,0.0003329,15.37871179,450.13168778703493,454.67946303374356,1 45580U 20025BB  26185.59633871  .00057112  00000+0  15107-2 0  9996,2 45580  53.1543 252.5345 0003329 331.7626  28.3197 15.37871179343432
STARLINK-1335,45581,53.1512,0.0002904,15.39587124,445.347201335142,449.3114321719122,1 45581U 20025BC  26185.46632380  .00071326  00000+0  17783-2 0  9992,2 45581  53.1512 249.5352 0002904 296.3135  63.7572 15.39587124343450
STARLINK-1337,45582,53.0411,0.0001898,15.78613868,333.09309034117086,335.6411569064994,1 45582U 20025BD  26185.44235127  .00116685  00000+0  65011-3 0  9995,2 45582  53.0411 205.3356 0001898  82.2188 277.9048 15.78613868344044
STARLINK-1347,45586,53.0354,0.0001626,15.71379175,353.85963850309327,356.04923983911067,1 45586U 20025BH  26184.39692071  .00066362  00000+0  51135-3 0  9995,2 45586  53.0354 182.2424 0001626  53.5080 306.6087 15.71379175344275
STARLINK-1364,45589,53.0395,0.000423,15.72333909,349.3816265261112,355.0755157993153,1 45589U 20025BL  26185.34522288  .00079697  00000+0  58783-3 0  9997,2 45589  53.0395 214.1024 0004230  24.7246 335.3974 15.72333909343912
STARLINK-1365,45590,53.0427,0.0001858,15.67721508,364.1701136939082,366.67602061486195,1 45590U 20025BM  26185.45745686  .00068605  00000+0  61446-3 0  9997,2 45590  53.0427 249.0517 0001858  35.3843 324.7296 15.67721508343456
STARLINK-1443,45660,53.13,0.0001984,15.34728462,460.37012699381285,463.084185090931,1 45660U 20035D   26185.44636618  .00060932  00000+0  17812-2 0  9991,2 45660  53.1300 242.4228 0001984  27.5208 332.5899 15.34728462336637
STARLINK-1446,45663,53.0202,0.0002145,15.49261769,417.42646094554766,420.3423831356031,1 45663U 20035G   26185.31602403  .00049625  00000+0  89600-3 0  9996,2 45663  53.0202 162.9005 0002145 355.5068   4.5919 15.49261769337714
STARLINK-1448,45665,53.039,0.000215,15.75922426,340.5627604062747,343.45242258061717,1 45665U 20035J   26185.41458858  .00106894  00000+0  67222-3 0  9990,2 45665  53.0390 200.8708 0002150  74.8283 285.2974 15.75922426337185
STARLINK-1451,45668,53.0516,0.0001463,15.15526392,518.3718346618361,520.3900484115293,1 45668U 20035M   26185.48290988  .00043041  00000+0  22469-2 0  9995,2 45668  53.0516 256.4983 0001463 351.8942   8.2027 15.15526392336420
STARLINK-1452,45669,53.0216,0.0007493,15.63713765,371.87890838422754,382.0020675076639,1 45669U 20035N   26184.96828368  .00149205  00000+0  15446-2 0  9993,2 45669  53.0216 180.2191 0007493  36.7383 323.4142 15.63713765337448
STARLINK-1453,45670,53.036,0.0001966,15.76654147,338.6074581791154,341.24900142747447,1 45670U 20035P   26185.62845911  .00177041  00000+0  10667-2 0  9991,2 45670  53.0360 159.9915 0001966 114.7168 245.4056 15.76654147337678
STARLINK-1454,45671,53.0409,0.0001808,15.74425757,345.04998119875563,347.4815252343187,1 45671U 20035Q   26185.44638092  .00111618  00000+0  74855-3 0  9990,2 45671  53.0409 202.2505 0001808  64.2669 295.8536 15.74425757337167
STARLINK-1456,45673,53.0388,0.000156,15.70985402,355.02896971896644,357.1300452693058,1 45673U 20035S   26185.32381288  .00083676  00000+0  65291-3 0  9997,2 45673  53.0388 197.8622 0001560  63.7281 296.3896 15.70985402337230
STARLINK-1458,45675,53.0429,0.0004558,15.62212698,378.1859794833772,384.34785209300935,1 45675U 20035U   26185.49603407  .00217169  00000+0  23633-2 0  9996,2 45675  53.0429 213.3305 0004558  17.9660 342.1513 15.62212698336991
STARLINK-1460,45676,53.1533,0.0004187,15.37686913,450.0910718801606,455.81142517947956,1 45676U 20035V   26185.44478338  .00058938  00000+0  15675-2 0  9999,2 45676  53.1533 240.4641 0004187 346.7203  13.3690 15.37686913336627
STARLINK-1392,45677,53.1509,0.0004766,15.41145541,439.4764112894718,445.9780590784503,1 45677U 20035W   26185.14473585  .00089884  00000+0  21206-2 0  9997,2 45677  53.1509 239.8647 0004766 348.3420  11.7475 15.41145541336648
STARLINK-1394,45679,53.0397,0.0001895,15.69536492,358.94639036139233,361.50022891874596,1 45679U 20035Y   26185.27628721  .00060066  00000+0  50056-3 0  9994,2 45679  53.0397 188.5262 0001895  76.4472 283.6756 15.69536492337353
STARLINK-1402,45685,53.0387,9.52e-05,15.67079989,366.6211968904836,367.9055211188388,1 45685U 20035AE  26185.66670139 -.00382718  00000+0 -36793-2 0  9998,2 45685  53.0387 178.8439 0000952 108.6451 277.5895 15.67079989  5972
STARLINK-1404,45686,53.1554,0.0003971,15.46978479,422.86914740300654,428.2726522170369,1 45686U 20035AF  26185.35496361  .00055679  00000+0  10865-2 0  9991,2 45686  53.1554 219.3351 0003971 335.0618  25.0198 15.46978479336955
STARLINK-1413,45689,53.1544,0.0004414,15.37489666,450.5199832707167,456.5509837391546,1 45689U 20035AJ  26185.48519833  .00087790  00000+0  23357-2 0  9997,2 45689  53.1544 224.9369 0004414 354.2335   5.8617 15.37489666336801
STARLINK-1417,45693,53.0469,0.0002517,15.18143033,509.7189371602244,513.1871567898716,1 45693U 20035AN  26185.53603798  .00067828  00000+0  32663-2 0  9992,2 45693  53.0469 242.4270 0002517 261.5052  98.5657 15.18143033336611
STARLINK-1420,45695,53.0436,0.0001792,15.73590516,347.4395860282193,349.8504647061118,1 45695U 20035AQ  26185.36048715  .00100052  00000+0  69695-3 0  9990,2 45695  53.0436 170.6449 0001792 107.0851 253.0363 15.73590516337618
STARLINK-1422,45696,53.1513,0.0001116,15.39317614,447.3641695281467,448.8877914253899,1 45696U 20035AR  26185.53969321  .00100240  00000+0  25079-2 0  9991,2 45696  53.1513 224.4840 0001116  75.3727 284.7402 15.39317614336890
